{
    "links": {
        "self": "http://www.neowsapp.com/rest/v1/neo/3674948?api_key=iIulBulltgU6a56xZRHN4H3l9WmuAYTsLGpBGhQ2"
    },
    "id": "3674948",
    "neo_reference_id": "3674948",
    "name": "(2014 OX3)",
    "designation": "2014 OX3",
    "nasa_jpl_url": "http://ssd.jpl.nasa.gov/sbdb.cgi?sstr=3674948",
    "absolute_magnitude_h": 27.8,
    "estimated_diameter": {
        "kilometers": {
            "estimated_diameter_min": 0.0073207399,
            "estimated_diameter_max": 0.016369672
        },
        "meters": {
            "estimated_diameter_min": 7.3207398935,
            "estimated_diameter_max": 16.3696720474
        },
        "miles": {
            "estimated_diameter_min": 0.0045488955,
            "estimated_diameter_max": 0.0101716395
        },
        "feet": {
            "estimated_diameter_min": 24.0181762721,
            "estimated_diameter_max": 53.70627484
        }
    },
    "is_potentially_hazardous_asteroid": false,
    "close_approach_data": [
        {
            "close_approach_date": "2014-07-21",
            "close_approach_date_full": "2014-Jul-21 18:26",
            "epoch_date_close_approach": 1405967160000,
            "relative_velocity": {
                "kilometers_per_second": "13.6719141917",
                "kilometers_per_hour": "49218.8910902147",
                "miles_per_hour": "30582.7048554726"
            },
            "miss_distance": {
                "astronomical": "0.0082548454",
                "lunar": "3.2111348606",
                "kilometers": "1234907.289019298",
                "miles": "767335.8075623924"
            },
            "orbiting_body": "Moon"
        },
        {
            "close_approach_date": "2014-07-21",
            "close_approach_date_full": "2014-Jul-21 19:42",
            "epoch_date_close_approach": 1405971720000,
            "relative_velocity": {
                "kilometers_per_second": "12.6924538682",
                "kilometers_per_hour": "45692.8339254012",
                "miles_per_hour": "28391.7500577028"
            },
            "miss_distance": {
                "astronomical": "0.0057951592",
                "lunar": "2.2543169288",
                "kilometers": "866943.472630904",
                "miles": "538693.6943343152"
            },
            "orbiting_body": "Earth"
        },
        {
            "close_approach_date": "2017-03-06",
            "close_approach_date_full": "2017-Mar-06 10:52",
            "epoch_date_close_approach": 1488797520000,
            "relative_velocity": {
                "kilometers_per_second": "26.8679544521",
                "kilometers_per_hour": "96724.6360276363",
                "miles_per_hour": "60100.9273139499"
            },
            "miss_distance": {
                "astronomical": "0.4819427974",
                "lunar": "187.4757481886",
                "kilometers": "72097615.952881538",
                "miles": "44799381.1782117044"
            },
            "orbiting_body": "Earth"
        }
    ],
    "orbital_data": {
        "orbit_id": "7",
        "orbit_determination_date": "2019-07-18 07:27:14",
        "first_observation_date": "2014-07-25",
        "last_observation_date": "2014-08-06",
        "data_arc_in_days": 12,
        "observations_used": 19,
        "orbit_uncertainty": "8",
        "minimum_orbit_intersection": ".00273712",
        "jupiter_tisserand_invariant": "3.620",
        "epoch_osculation": "2456867.5",
        "eccentricity": ".5634099493845136",
        "semi_major_axis": "2.00483511824245",
        "inclination": "1.921710246826103",
        "ascending_node_longitude": "122.8167782419834",
        "orbital_period": "1036.85116171486",
        "perihelion_distance": ".8752910657491757",
        "perihelion_argument": "123.2942126975769",
        "aphelion_distance": "3.134379170735724",
        "perihelion_time": "2456821.662879553752",
        "mean_anomaly": "15.91488148921731",
        "mean_motion": ".3472050891128791",
        "equinox": "J2000",
        "orbit_class": {
            "orbit_class_type": "APO",
            "orbit_class_description": "Near-Earth asteroid orbits which cross the Earth’s orbit similar to that of 1862 Apollo",
            "orbit_class_range": "a (semi-major axis) > 1.0 AU; q (perihelion) < 1.017 AU"
        }
    },
    "is_sentry_object": false
}